$$SOE
2460721.500000000, A.D. 2025-Feb-15 00:00:00.0000, 1.053408996230528E+08, -4.950500410838177E+08, -2.961733137750244E+07,
2460728.500000000, A.D. 2025-Feb-22 00:00:00.0000, 1.142994142723192E+08, -4.923434191378483E+08, -2.979231823432112E+07,
2460735.500000000, A.D. 2025-Mar-01 00:00:00.0000, 1.232151797095895E+08, -4.894527210716475E+08, -2.995616189903671E+07,
2460742.500000000, A.D. 2025-Mar-08 00:00:00.0000, 1.320846721433498E+08, -4.863782638690475E+08, -3.010875465936181E+07,
2460749.500000000, A.D. 2025-Mar-15 00:00:00.0000, 1.409043523525990E+08, -4.831204186156453E+08, -3.024999113705599E+07,
2460756.500000000, A.D. 2025-Mar-22 00:00:00.0000, 1.496706637527489E+08, -4.796796111223609E+08, -3.037976810912102E+07,
2460763.500000000, A.D. 2025-Mar-29 00:00:00.0000, 1.583800318646823E+08, -4.760563248334027E+08, -3.049798464054328E+07,
2460770.500000000, A.D. 2025-Apr-05 00:00:00.0000, 1.670288655147691E+08, -4.722511028803043E+08, -3.060454230233338E+07,
2460777.500000000, A.D. 2025-Apr-12 00:00:00.0000, 1.756135578420989E+08, -4.682645491781434E+08, -3.069934529009113E+07,
2460784.500000000, A.D. 2025-Apr-19 00:00:00.0000, 1.841304869278200E+08, -4.640973294449225E+08, -3.078230049829715E+07,
2460791.500000000, A.D. 2025-Apr-26 00:00:00.0000, 1.925760163204062E+08, -4.597501723465352E+08, -3.085331759216470E+07,
2460798.500000000, A.D. 2025-May-03 00:00:00.0000, 2.009464955726965E+08, -4.552238707474131E+08, -3.091230908619639E+07,
2460805.500000000, A.D. 2025-May-10 00:00:00.0000, 2.092382608214398E+08, -4.505192830572917E+08, -3.095919043160367E+07,
2460812.500000000, A.D. 2025-May-17 00:00:00.0000, 2.174476354483013E+08, -4.456373347140306E+08, -3.099388011950687E+07,
2460819.500000000, A.D. 2025-May-24 00:00:00.0000, 2.255709309986378E+08, -4.405790198559061E+08, -3.101629982046285E+07,
2460826.500000000, A.D. 2025-May-31 00:00:00.0000, 2.336044487781325E+08, -4.353454028715866E+08, -3.102637457328278E+07,
2460833.500000000, A.D. 2025-Jun-07 00:00:00.0000, 2.415444817282135E+08, -4.299376186220941E+08, -3.102403288786948E+07,
2460840.500000000, A.D. 2025-Jun-14 00:00:00.0000, 2.493873142170954E+08, -4.243568719995587E+08, -3.100920659958634E+07,
2460847.500000000, A.D. 2025-Jun-21 00:00:00.0000, 2.571292209651895E+08, -4.186044400905424E+08, -3.098183085402489E+07,
2460854.500000000, A.D. 2025-Jun-28 00:00:00.0000, 2.647664682368037E+08, -4.126816751762384E+08, -3.094184436494419E+07,
2460861.500000000, A.D. 2025-Jul-05 00:00:00.0000, 2.722953157857949E+08, -4.065900064120690E+08, -3.088918963017598E+07,
2460868.500000000, A.D. 2025-Jul-12 00:00:00.0000, 2.797120183678021E+08, -4.003309409917471E+08, -3.082381306216589E+07,
2460875.500000000, A.D. 2025-Jul-19 00:00:00.0000, 2.870128270113639E+08, -3.939060653702285E+08, -3.074566509752113E+07,
2460882.500000000, A.D. 2025-Jul-26 00:00:00.0000, 2.941939902600170E+08, -3.873170466007181E+08, -3.065470030930626E+07,
2460889.500000000, A.D. 2025-Aug-02 00:00:00.0000, 3.012517554526441E+08, -3.805656337617780E+08, -3.055087752608123E+07,
2460896.500000000, A.D. 2025-Aug-09 00:00:00.0000, 3.081823700673569E+08, -3.736536594859233E+08, -3.043415996072128E+07,
2460903.500000000, A.D. 2025-Aug-16 00:00:00.0000, 3.149820832080691E+08, -3.665830416488504E+08, -3.030451536092630E+07,
2460910.500000000, A.D. 2025-Aug-23 00:00:00.0000, 3.216471475294880E+08, -3.593557851984898E+08, -3.016191620660990E+07,
2460917.500000000, A.D. 2025-Aug-30 00:00:00.0000, 3.281738219334783E+08, -3.519739834063410E+08, -3.000633992572212E+07,
2460924.500000000, A.D. 2025-Sep-06 00:00:00.0000, 3.345583736225784E+08, -3.444398175384901E+08, -2.983776891643719E+07,
2460931.500000000, A.D. 2025-Sep-13 00:00:00.0000, 3.407970778424295E+08, -3.367555574263967E+08, -2.965619042510079E+07,
2460938.500000000, A.D. 2025-Sep-20 00:00:00.0000, 3.468862185882952E+08, -3.289235645773869E+08, -2.946159671424010E+07,
2460945.500000000, A.D. 2025-Sep-27 00:00:00.0000, 3.528220913371412E+08, -3.209462947087061E+08, -2.925398536316234E+07,
2460952.500000000, A.D. 2025-Oct-04 00:00:00.0000, 3.586010057917270E+08, -3.128262991619706E+08, -2.903335947184186E+07,
2460959.500000000, A.D. 2025-Oct-11 00:00:00.0000, 3.642192882656838E+08, -3.045662261367879E+08, -2.879972781064291E+07,
2460966.500000000, A.D. 2025-Oct-18 00:00:00.0000, 3.696732839955876E+08, -2.961688220130961E+08, -2.855310496410812E+07,
2460973.500000000, A.D. 2025-Oct-25 00:00:00.0000, 3.749593595218046E+08, -2.876369327459046E+08, -2.829351148054372E+07,
2460980.500000000, A.D. 2025-Nov-01 00:00:00.0000, 3.800739051795978E+08, -2.789735053113156E+08, -2.802097402963656E+07,
2460987.500000000, A.D. 2025-Nov-08 00:00:00.0000, 3.850133377366619E+08, -2.701815892292131E+08, -2.773552557375890E+07,
2460994.500000000, A.D. 2025-Nov-15 00:00:00.0000, 3.897741033260706E+08, -2.612643382143865E+08, -2.743720557124932E+07,
2461001.500000000, A.D. 2025-Nov-22 00:00:00.0000, 3.943526810786712E+08, -2.522250117283732E+08, -2.712606023054570E+07,
2461008.500000000, A.D. 2025-Nov-29 00:00:00.0000, 3.987455873041917E+08, -2.430669752897300E+08, -2.680214270827426E+07,
2461015.500000000, A.D. 2025-Dec-06 00:00:00.0000, 4.029493779460404E+08, -2.337936996727597E+08, -2.646551305342765E+07,
2461022.500000000, A.D. 2025-Dec-13 00:00:00.0000, 4.069606497436024E+08, -2.244087623583852E+08, -2.611623821268795E+07,
2461029.500000000, A.D. 2025-Dec-20 00:00:00.0000, 4.107760435944911E+08, -2.149158502053029E+08, -2.575439233341552E+07,
2461036.500000000, A.D. 2025-Dec-27 00:00:00.0000, 4.143922490434716E+08, -2.053187607411613E+08, -2.538005705371064E+07,
2461043.500000000, A.D. 2026-Jan-03 00:00:00.0000, 4.178060084395355E+08, -1.956214026808695E+08, -2.499332169562607E+07,
2461050.500000000, A.D. 2026-Jan-10 00:00:00.0000, 4.210141208709863E+08, -1.858277963422290E+08, -2.459428342661606E+07,
2461057.500000000, A.D. 2026-Jan-17 00:00:00.0000, 4.240134461106730E+08, -1.759420740413791E+08, -2.418304741750707E+07,
2461064.500000000, A.D. 2026-Jan-24 00:00:00.0000, 4.268009086484104E+08, -1.659684804361877E+08, -2.375972700169018E+07,
2461071.500000000, A.D. 2026-Jan-31 00:00:00.0000, 4.293735018323286E+08, -1.559113728158934E+08, -2.332444383764236E+07,
2461078.500000000, A.D. 2026-Feb-07 00:00:00.0000, 4.317282921774344E+08, -1.457752213852459E+08, -2.287732808439820E+07,
2461085.500000000, A.D. 2026-Feb-14 00:00:00.0000, 4.338624240890340E+08, -1.355646095485368E+08, -2.241851861367104E+07,
2461092.500000000, A.D. 2026-Feb-21 00:00:00.0000, 4.357731253820727E+08, -1.252842336046066E+08, -2.194816324617112E+07,
2461099.500000000, A.D. 2026-Feb-28 00:00:00.0000, 4.374577125070929E+08, -1.149389006866015E+08, -2.146641881749428E+07,
2461106.500000000, A.D. 2026-Mar-07 00:00:00.0000, 4.389135934215719E+08, -1.045335268857677E+08, -2.097345104342169E+07,
2461113.500000000, A.D. 2026-Mar-14 00:00:00.0000, 4.401382708775162E+08, -9.407313788235055E+07, -2.046943462922290E+07,
2461120.500000000, A.D. 2026-Mar-21 00:00:00.0000, 4.411293479021670E+08, -8.356286917527312E+07, -1.995455354888991E+07,
2461127.500000000, A.D. 2026-Mar-28 00:00:00.0000, 4.418845334567561E+08, -7.300796487241653E+07, -1.942900122505866E+07,
2461134.500000000, A.D. 2026-Apr-04 00:00:00.0000, 4.424016476626699E+08, -6.241377599849937E+07, -1.889298063221292E+07,
2461141.500000000, A.D. 2026-Apr-11 00:00:00.0000, 4.426786268602036E+08, -5.178575867175788E+07, -1.834670437669428E+07,
2461148.500000000, A.D. 2026-Apr-18 00:00:00.0000, 4.427135286492647E+08, -4.112947214704411E+07, -1.779039476761310E+07,
2461155.500000000, A.D. 2026-Apr-25 00:00:00.0000, 4.425045369472508E+08, -3.045057670146285E+07, -1.722428388057965E+07,
2461162.500000000, A.D. 2026-May-02 00:00:00.0000, 4.420499670836964E+08, -1.975483138325958E+07, -1.664861361842075E+07,
2461169.500000000, A.D. 2026-May-09 00:00:00.0000, 4.413482710444207E+08, -9.048091681985347E+06, -1.606363578470465E+07,
2461176.500000000, A.D. 2026-May-16 00:00:00.0000, 4.403980432294087E+08, 1.663693025903523E+06, -1.546961219249111E+07,
2461183.500000000, A.D. 2026-May-23 00:00:00.0000, 4.391980267606470E+08, 1.237448328655829E+07, -1.486681472852712E+07,
2461190.500000000, A.D. 2026-May-30 00:00:00.0000, 4.377471182476383E+08, 2.307815496161262E+07, -1.425552515509281E+07,
2461197.500000000, A.D. 2026-Jun-06 00:00:00.0000, 4.360443706808015E+08, 3.376850293638011E+07, -1.363603488714889E+07,
2461204.500000000, A.D. 2026-Jun-13 00:00:00.0000, 4.340889981016849E+08, 4.443924334590071E+07, -1.300864506420752E+07,
2461211.500000000, A.D. 2026-Jun-20 00:00:00.0000, 4.318803815297480E+08, 5.508401724958151E+07, -1.237366663120447E+07,
2461218.500000000, A.D. 2026-Jun-27 00:00:00.0000, 4.294180744291649E+08, 6.569639541862677E+07, -1.173142029975447E+07,
2461225.500000000, A.D. 2026-Jul-04 00:00:00.0000, 4.267018076971894E+08, 7.626988346386236E+07, -1.108223645258484E+07,
2461232.500000000, A.D. 2026-Jul-11 00:00:00.0000, 4.237314944087739E+08, 8.679792717323676E+07, -1.042645502474891E+07,
2461239.500000000, A.D. 2026-Jul-18 00:00:00.0000, 4.205072343901830E+08, 9.727391808474436E+07, -9.764425367580224E+06,
2461246.500000000, A.D. 2026-Jul-25 00:00:00.0000, 4.170293186255664E+08, 1.076911992963030E+08, -9.096506096974865E+06,
2461253.500000000, A.D. 2026-Aug-01 00:00:00.0000, 4.132982335239282E+08, 1.180430714619621E+08, -8.423064933932111E+06,
2461260.500000000, A.D. 2026-Aug-08 00:00:00.0000, 4.093146652406409E+08, 1.283227989342849E+08, -7.744478559641242E+06,
2461267.500000000, A.D. 2026-Aug-15 00:00:00.0000, 4.050795044465822E+08, 1.385236164965899E+08, -7.061132486142024E+06,
2461274.500000000, A.D. 2026-Aug-22 00:00:00.0000, 4.005938507594222E+08, 1.486387378988742E+08, -6.373420772630550E+06,
2461281.500000000, A.D. 2026-Aug-29 00:00:00.0000, 3.958590145260878E+08, 1.586613648185859E+08, -5.681745489082962E+06,
2461288.500000000, A.D. 2026-Sep-05 00:00:00.0000, 3.908765180722943E+08, 1.685846933684893E+08, -4.986516357075326E+06,
$$EOE